{
  "type": "FeatureCollection",
  "features": [
    {
      "type": "Feature",
      "properties": {
        "norad_id": 42989,
        "name": "SKYSAT-C9",
        "group": "resource",
        "lat": 72.9729352943549,
        "lon": -24.25909771941552,
        "alt_km": 446.41690903166545,
        "timestamp": "2025-12-26T04:40:05.445756+00:00",
        "meta_object_name": "SKYSAT-C9",
        "meta_object_id": "2017-068C",
        "meta_epoch": "2025-12-25T21:57:34.809408",
        "meta_mean_motion": 15.36381631,
        "meta_eccentricity": 0.00102125,
        "meta_inclination": 97.4194,
        "meta_ra_of_asc_node": 130.2756,
        "meta_arg_of_pericenter": 45.4149,
        "meta_mean_anomaly": 314.7927,
        "meta_ephemeris_type": 0,
        "meta_classification_type": "U",
        "meta_norad_cat_id": 42989,
        "meta_element_set_no": 999,
        "meta_rev_at_epoch": 45610,
        "meta_bstar": 0.00039249687,
        "meta_mean_motion_dot": 0.00013877,
        "meta_mean_motion_ddot": 0,
        "tle_line1": "1 42989U 17068C   25359.91498622  .00013877  00000+0  39250-3 0  9996",
        "tle_line2": "2 42989  97.4194 130.2756 0010212  45.4149 314.7927 15.36381631456101"
      },
      "geometry": {
        "type": "Point",
        "coordinates": [
          -24.25909771941552,
          72.9729352943549
        ]
      }
    },
    {
      "type": "Feature",
      "properties": {
        "norad_id": 42990,
        "name": "SKYSAT-C8",
        "group": "resource",
        "lat": -74.50292853999767,
        "lon": 158.32816822245923,
        "alt_km": 472.95682700508405,
        "timestamp": "2025-12-26T04:40:05.445767+00:00",
        "meta_object_name": "SKYSAT-C8",
        "meta_object_id": "2017-068D",
        "meta_epoch": "2025-12-25T21:10:08.556672",
        "meta_mean_motion": 15.33208945,
        "meta_eccentricity": 9.445e-05,
        "meta_inclination": 97.4287,
        "meta_ra_of_asc_node": 129.942,
        "meta_arg_of_pericenter": 263.9401,
        "meta_mean_anomaly": 96.1733,
        "meta_ephemeris_type": 0,
        "meta_classification_type": "U",
        "meta_norad_cat_id": 42990,
        "meta_element_set_no": 999,
        "meta_rev_at_epoch": 45572,
        "meta_bstar": 0.00035523615,
        "meta_mean_motion_dot": 0.00011324,
        "meta_mean_motion_ddot": 0,
        "tle_line1": "1 42990U 17068D   25359.88204348  .00011324  00000+0  35524-3 0  9999",
        "tle_line2": "2 42990  97.4287 129.9420 0000944 263.9401  96.1733 15.33208945455724"
      },
      "geometry": {
        "type": "Point",
        "coordinates": [
          158.32816822245923,
          -74.50292853999767
        ]
      }
    },
    {
      "type": "Feature",
      "properties": {
        "norad_id": 42991,
        "name": "SKYSAT-C7",
        "group": "resource",
        "lat": 68.54370049436277,
        "lon": -29.322240222838627,
        "alt_km": 461.89698444165697,
        "timestamp": "2025-12-26T04:40:05.445777+00:00",
        "meta_object_name": "SKYSAT-C7",
        "meta_object_id": "2017-068E",
        "meta_epoch": "2025-12-25T21:55:18.596352",
        "meta_mean_motion": 15.32604229,
        "meta_eccentricity": 0.00068158,
        "meta_inclination": 97.4296,
        "meta_ra_of_asc_node": 131.004,
        "meta_arg_of_pericenter": 14.8643,
        "meta_mean_anomaly": 345.2798,
        "meta_ephemeris_type": 0,
        "meta_classification_type": "U",
        "meta_norad_cat_id": 42991,
        "meta_element_set_no": 999,
        "meta_rev_at_epoch": 45579,
        "meta_bstar": 0.00037042321,
        "meta_mean_motion_dot": 0.00011596,
        "meta_mean_motion_ddot": 0,
        "tle_line1": "1 42991U 17068E   25359.91340968  .00011596  00000+0  37042-3 0  9991",
        "tle_line2": "2 42991  97.4296 131.0040 0006815  14.8643 345.2798 15.32604229455791"
      },
      "geometry": {
        "type": "Point",
        "coordinates": [
          -29.322240222838627,
          68.54370049436277
        ]
      }
    },
    {
      "type": "Feature",
      "properties": {
        "norad_id": 42992,
        "name": "SKYSAT-C6",
        "group": "resource",
        "lat": -6.405216340139698,
        "lon": -49.12603597657038,
        "alt_km": 476.9595731836298,
        "timestamp": "2025-12-26T04:40:05.445788+00:00",
        "meta_object_name": "SKYSAT-C6",
        "meta_object_id": "2017-068F",
        "meta_epoch": "2025-12-25T20:01:06.090528",
        "meta_mean_motion": 15.31757076,
        "meta_eccentricity": 0.00047376,
        "meta_inclination": 97.4326,
        "meta_ra_of_asc_node": 131.3522,
        "meta_arg_of_pericenter": 46.8398,
        "meta_mean_anomaly": 313.3239,
        "meta_ephemeris_type": 0,
        "meta_classification_type": "U",
        "meta_norad_cat_id": 42992,
        "meta_element_set_no": 999,
        "meta_rev_at_epoch": 45576,
        "meta_bstar": 0.00037471515,
        "meta_mean_motion_dot": 0.0001142,
        "meta_mean_motion_ddot": 0,
        "tle_line1": "1 42992U 17068F   25359.83409827  .00011420  00000+0  37472-3 0  9996",
        "tle_line2": "2 42992  97.4326 131.3522 0004737  46.8398 313.3239 15.31757076455768"
      },
      "geometry": {
        "type": "Point",
        "coordinates": [
          -49.12603597657038,
          -6.405216340139698
        ]
      }
    },
    {
      "type": "Feature",
      "properties": {
        "norad_id": 43111,
        "name": "CARTOSAT-2F",
        "group": "resource",
        "lat": 53.62382194871224,
        "lon": 47.4089048426598,
        "alt_km": 502.49298778548473,
        "timestamp": "2025-12-26T04:40:05.445798+00:00",
        "meta_object_name": "CARTOSAT-2F",
        "meta_object_id": "2018-004A",
        "meta_epoch": "2025-12-25T23:41:16.284192",
        "meta_mean_motion": 15.19248825,
        "meta_eccentricity": 0.00015608,
        "meta_inclination": 97.4294,
        "meta_ra_of_asc_node": 57.4084,
        "meta_arg_of_pericenter": 110.7311,
        "meta_mean_anomaly": 249.4091,
        "meta_ephemeris_type": 0,
        "meta_classification_type": "U",
        "meta_norad_cat_id": 43111,
        "meta_element_set_no": 999,
        "meta_rev_at_epoch": 44103,
        "meta_bstar": 0.00021970906,
        "meta_mean_motion_dot": 4.563e-05,
        "meta_mean_motion_ddot": 0,
        "tle_line1": "1 43111U 18004A   25359.98699403  .00004563  00000+0  21971-3 0  9995",
        "tle_line2": "2 43111  97.4294  57.4084 0001560 110.7311 249.4091 15.19248825441037"
      },
      "geometry": {
        "type": "Point",
        "coordinates": [
          47.4089048426598,
          53.62382194871224
        ]
      }
    },
    {
      "type": "Feature",
      "properties": {
        "norad_id": 43259,
        "name": "GAOFEN-1 02",
        "group": "resource",
        "lat": -81.90905627797987,
        "lon": 145.55472188621425,
        "alt_km": 648.3167201884107,
        "timestamp": "2025-12-26T04:40:05.445808+00:00",
        "meta_object_name": "GAOFEN-1 02",
        "meta_object_id": "2018-031A",
        "meta_epoch": "2025-12-25T22:34:04.519776",
        "meta_mean_motion": 14.76442891,
        "meta_eccentricity": 0.00026714,
        "meta_inclination": 98.0784,
        "meta_ra_of_asc_node": 57.733,
        "meta_arg_of_pericenter": 169.0445,
        "meta_mean_anomaly": 191.0823,
        "meta_ephemeris_type": 0,
        "meta_classification_type": "U",
        "meta_norad_cat_id": 43259,
        "meta_element_set_no": 999,
        "meta_rev_at_epoch": 41713,
        "meta_bstar": 0.00019984058,
        "meta_mean_motion_dot": 1.338e-05,
        "meta_mean_motion_ddot": 0,
        "tle_line1": "1 43259U 18031A   25359.94033009  .00001338  00000+0  19984-3 0  9996",
        "tle_line2": "2 43259  98.0784  57.7330 0002671 169.0445 191.0823 14.76442891417137"
      },
      "geometry": {
        "type": "Point",
        "coordinates": [
          145.55472188621425,
          -81.90905627797987
        ]
      }
    },
    {
      "type": "Feature",
      "properties": {
        "norad_id": 43260,
        "name": "GAOFEN-1 03",
        "group": "resource",
        "lat": 26.15566373724852,
        "lon": 53.86386321910547,
        "alt_km": 640.5084182566088,
        "timestamp": "2025-12-26T04:40:05.445819+00:00",
        "meta_object_name": "GAOFEN-1 03",
        "meta_object_id": "2018-031B",
        "meta_epoch": "2025-12-25T23:40:09.554016",
        "meta_mean_motion": 14.76462999,
        "meta_eccentricity": 0.00017605,
        "meta_inclination": 98.078,
        "meta_ra_of_asc_node": 57.6551,
        "meta_arg_of_pericenter": 250.8744,
        "meta_mean_anomaly": 109.2275,
        "meta_ephemeris_type": 0,
        "meta_classification_type": "U",
        "meta_norad_cat_id": 43260,
        "meta_element_set_no": 999,
        "meta_rev_at_epoch": 41713,
        "meta_bstar": 0.00013678649,
        "meta_mean_motion_dot": 9e-06,
        "meta_mean_motion_ddot": 0,
        "tle_line1": "1 43260U 18031B   25359.98622169  .00000900  00000+0  13679-3 0  9992",
        "tle_line2": "2 43260  98.0780  57.6551 0001760 250.8744 109.2275 14.76462999417131"
      },
      "geometry": {
        "type": "Point",
        "coordinates": [
          53.86386321910547,
          26.15566373724852
        ]
      }
    }
  ]
}